CCSDS_OMM_VERS = 2.0
CREATION_DATE  = 
ORIGINATOR     = 

OBJECT_NAME    = STARLINK-36753
OBJECT_ID      = 2026-025B
CENTER_NAME    = EARTH
REF_FRAME      = TEME
TIME_SYSTEM    = UTC
MEAN_ELEMENT_THEORY = SGP/SGP4

EPOCH          = 2026-03-03T22:38:58.481952
MEAN_MOTION    = 15.75264602
ECCENTRICITY   = .00011664
INCLINATION    = 97.2843
RA_OF_ASC_NODE = 174.2105
ARG_OF_PERICENTER = 88.8601
MEAN_ANOMALY   = 271.2798

EPHEMERIS_TYPE = 0
CLASSIFICATION_TYPE = U
NORAD_CAT_ID   = 67694
ELEMENT_SET_NO = 999
REV_AT_EPOCH   = 504
BSTAR          = .20491499E-2
MEAN_MOTION_DOT = .318212E-2
MEAN_MOTION_DDOT = 0

CCSDS_OMM_VERS = 2.0
CREATION_DATE  = 
ORIGINATOR     = 

OBJECT_NAME    = STARLINK-36750
OBJECT_ID      = 2026-025C
CENTER_NAME    = EARTH
REF_FRAME      = TEME
TIME_SYSTEM    = UTC
MEAN_ELEMENT_THEORY = SGP/SGP4

EPOCH          = 2026-03-03T20:32:34.786752
MEAN_MOTION    = 15.80887224
ECCENTRICITY   = .00007507
INCLINATION    = 97.2843
RA_OF_ASC_NODE = 174.1780
ARG_OF_PERICENTER = 95.1678
MEAN_ANOMALY   = 264.9676

EPHEMERIS_TYPE = 0
CLASSIFICATION_TYPE = U
NORAD_CAT_ID   = 67695
ELEMENT_SET_NO = 999
REV_AT_EPOCH   = 502
BSTAR          = .25337828E-2
MEAN_MOTION_DOT = .516819E-2
MEAN_MOTION_DDOT = 0

CCSDS_OMM_VERS = 2.0
CREATION_DATE  = 
ORIGINATOR     = 

OBJECT_NAME    = STARLINK-36401
OBJECT_ID      = 2026-025D
CENTER_NAME    = EARTH
REF_FRAME      = TEME
TIME_SYSTEM    = UTC
MEAN_ELEMENT_THEORY = SGP/SGP4

EPOCH          = 2026-03-03T18:00:02.000160
MEAN_MOTION    = 15.75116395
ECCENTRICITY   = .00010789
INCLINATION    = 97.2853
RA_OF_ASC_NODE = 174.0408
ARG_OF_PERICENTER = 87.3145
MEAN_ANOMALY   = 333.0930

EPHEMERIS_TYPE = 0
CLASSIFICATION_TYPE = U
NORAD_CAT_ID   = 67696
ELEMENT_SET_NO = 999
REV_AT_EPOCH   = 490
BSTAR          = .96163295E-3
MEAN_MOTION_DOT = .145305E-2
MEAN_MOTION_DDOT = 0

CCSDS_OMM_VERS = 2.0
CREATION_DATE  = 
ORIGINATOR     = 

OBJECT_NAME    = STARLINK-36704
OBJECT_ID      = 2026-025E
CENTER_NAME    = EARTH
REF_FRAME      = TEME
TIME_SYSTEM    = UTC
MEAN_ELEMENT_THEORY = SGP/SGP4

EPOCH          = 2026-03-03T22:35:55.502304
MEAN_MOTION    = 15.75274883
ECCENTRICITY   = .00016174
INCLINATION    = 97.2846
RA_OF_ASC_NODE = 174.2131
ARG_OF_PERICENTER = 80.9996
MEAN_ANOMALY   = 279.1452

EPHEMERIS_TYPE = 0
CLASSIFICATION_TYPE = U
NORAD_CAT_ID   = 67697
ELEMENT_SET_NO = 999
REV_AT_EPOCH   = 503
BSTAR          = .21104726E-2
MEAN_MOTION_DOT = .328272E-2
MEAN_MOTION_DDOT = 0

CCSDS_OMM_VERS = 2.0
CREATION_DATE  = 
ORIGINATOR     = 

OBJECT_NAME    = STARLINK-36697
OBJECT_ID      = 2026-025F
CENTER_NAME    = EARTH
REF_FRAME      = TEME
TIME_SYSTEM    = UTC
MEAN_ELEMENT_THEORY = SGP/SGP4

EPOCH          = 2026-03-03T18:52:08.098176
MEAN_MOTION    = 15.81168156
ECCENTRICITY   = .00024097
INCLINATION    = 97.2844
RA_OF_ASC_NODE = 174.1192
ARG_OF_PERICENTER = 22.2060
MEAN_ANOMALY   = 337.9312

EPHEMERIS_TYPE = 0
CLASSIFICATION_TYPE = U
NORAD_CAT_ID   = 67698
ELEMENT_SET_NO = 999
REV_AT_EPOCH   = 501
BSTAR          = .37022872E-2
MEAN_MOTION_DOT = .789537E-2
MEAN_MOTION_DDOT = 0

CCSDS_OMM_VERS = 2.0
CREATION_DATE  = 
ORIGINATOR     = 

OBJECT_NAME    = STARLINK-36716
OBJECT_ID      = 2026-025G
CENTER_NAME    = EARTH
REF_FRAME      = TEME
TIME_SYSTEM    = UTC
MEAN_ELEMENT_THEORY = SGP/SGP4

EPOCH          = 2026-03-03T18:00:02.000160
MEAN_MOTION    = 15.77553752
ECCENTRICITY   = .00017878
INCLINATION    = 97.2854
RA_OF_ASC_NODE = 174.0833
ARG_OF_PERICENTER = 78.1924
MEAN_ANOMALY   = 81.6625

EPHEMERIS_TYPE = 0
CLASSIFICATION_TYPE = U
NORAD_CAT_ID   = 67699
ELEMENT_SET_NO = 999
REV_AT_EPOCH   = 505
BSTAR          = -.12004225E-1
MEAN_MOTION_DOT = -.1752589E-1
MEAN_MOTION_DDOT = 0

CCSDS_OMM_VERS = 2.0
CREATION_DATE  = 
ORIGINATOR     = 

OBJECT_NAME    = STARLINK-36712
OBJECT_ID      = 2026-025H
CENTER_NAME    = EARTH
REF_FRAME      = TEME
TIME_SYSTEM    = UTC
MEAN_ELEMENT_THEORY = SGP/SGP4

EPOCH          = 2026-03-03T20:50:12.839424
MEAN_MOTION    = 15.75239763
ECCENTRICITY   = .00006489
INCLINATION    = 97.2850
RA_OF_ASC_NODE = 174.1587
ARG_OF_PERICENTER = 66.2861
MEAN_ANOMALY   = 293.8472

EPHEMERIS_TYPE = 0
CLASSIFICATION_TYPE = U
NORAD_CAT_ID   = 67700
ELEMENT_SET_NO = 999
REV_AT_EPOCH   = 502
BSTAR          = .24849865E-2
MEAN_MOTION_DOT = .388769E-2
MEAN_MOTION_DDOT = 0

CCSDS_OMM_VERS = 2.0
CREATION_DATE  = 
ORIGINATOR     = 

OBJECT_NAME    = STARLINK-36713
OBJECT_ID      = 2026-025J
CENTER_NAME    = EARTH
REF_FRAME      = TEME
TIME_SYSTEM    = UTC
MEAN_ELEMENT_THEORY = SGP/SGP4

EPOCH          = 2026-03-03T19:21:16.999200
MEAN_MOTION    = 15.75441394
ECCENTRICITY   = .00032443
INCLINATION    = 97.2853
RA_OF_ASC_NODE = 174.0896
ARG_OF_PERICENTER = 66.8532
MEAN_ANOMALY   = 293.3074

EPHEMERIS_TYPE = 0
CLASSIFICATION_TYPE = U
NORAD_CAT_ID   = 67701
ELEMENT_SET_NO = 999
REV_AT_EPOCH   = 502
BSTAR          = .33102379E-2
MEAN_MOTION_DOT = .531323E-2
MEAN_MOTION_DDOT = 0

CCSDS_OMM_VERS = 2.0
CREATION_DATE  = 
ORIGINATOR     = 

OBJECT_NAME    = STARLINK-36695
OBJECT_ID      = 2026-025K
CENTER_NAME    = EARTH
REF_FRAME      = TEME
TIME_SYSTEM    = UTC
MEAN_ELEMENT_THEORY = SGP/SGP4

EPOCH          = 2026-03-03T19:24:19.731744
MEAN_MOTION    = 15.75205945
ECCENTRICITY   = .0001078
INCLINATION    = 97.2862
RA_OF_ASC_NODE = 174.0853
ARG_OF_PERICENTER = 110.0581
MEAN_ANOMALY   = 250.0801

EPHEMERIS_TYPE = 0
CLASSIFICATION_TYPE = U
NORAD_CAT_ID   = 67702
ELEMENT_SET_NO = 999
REV_AT_EPOCH   = 501
BSTAR          = .17537079E-2
MEAN_MOTION_DOT = .270079E-2
MEAN_MOTION_DDOT = 0

CCSDS_OMM_VERS = 2.0
CREATION_DATE  = 
ORIGINATOR     = 

OBJECT_NAME    = STARLINK-36630
OBJECT_ID      = 2026-025L
CENTER_NAME    = EARTH
REF_FRAME      = TEME
TIME_SYSTEM    = UTC
MEAN_ELEMENT_THEORY = SGP/SGP4

EPOCH          = 2026-03-03T20:11:51.150336
MEAN_MOTION    = 15.80843409
ECCENTRICITY   = .00016512
INCLINATION    = 97.2854
RA_OF_ASC_NODE = 174.1946
ARG_OF_PERICENTER = 56.8513
MEAN_ANOMALY   = 303.2913

EPHEMERIS_TYPE = 0
CLASSIFICATION_TYPE = U
NORAD_CAT_ID   = 67703
ELEMENT_SET_NO = 999
REV_AT_EPOCH   = 502
BSTAR          = .22282152E-2
MEAN_MOTION_DOT = .450006E-2
MEAN_MOTION_DDOT = 0

CCSDS_OMM_VERS = 2.0
CREATION_DATE  = 
ORIGINATOR     = 

OBJECT_NAME    = STARLINK-36338
OBJECT_ID      = 2026-025M
CENTER_NAME    = EARTH
REF_FRAME      = TEME
TIME_SYSTEM    = UTC
MEAN_ELEMENT_THEORY = SGP/SGP4

EPOCH          = 2026-03-03T18:00:02.000160
MEAN_MOTION    = 15.75189706
ECCENTRICITY   = .00012684
INCLINATION    = 97.2854
RA_OF_ASC_NODE = 174.0767
ARG_OF_PERICENTER = 98.2045
MEAN_ANOMALY   = 52.1598

EPHEMERIS_TYPE = 0
CLASSIFICATION_TYPE = U
NORAD_CAT_ID   = 67704
ELEMENT_SET_NO = 999
REV_AT_EPOCH   = 495
BSTAR          = .10314938E-3
MEAN_MOTION_DOT = .15283E-3
MEAN_MOTION_DDOT = 0

CCSDS_OMM_VERS = 2.0
CREATION_DATE  = 
ORIGINATOR     = 

OBJECT_NAME    = STARLINK-36316
OBJECT_ID      = 2026-025N
CENTER_NAME    = EARTH
REF_FRAME      = TEME
TIME_SYSTEM    = UTC
MEAN_ELEMENT_THEORY = SGP/SGP4

EPOCH          = 2026-03-03T19:07:33.244320
MEAN_MOTION    = 15.75281088
ECCENTRICITY   = .00007134
INCLINATION    = 97.2858
RA_OF_ASC_NODE = 174.1023
ARG_OF_PERICENTER = 95.9117
MEAN_ANOMALY   = 264.2229

EPHEMERIS_TYPE = 0
CLASSIFICATION_TYPE = U
NORAD_CAT_ID   = 67705
ELEMENT_SET_NO = 999
REV_AT_EPOCH   = 501
BSTAR          = .13484094E-2
MEAN_MOTION_DOT = .206752E-2
MEAN_MOTION_DDOT = 0

CCSDS_OMM_VERS = 2.0
CREATION_DATE  = 
ORIGINATOR     = 

OBJECT_NAME    = STARLINK-36707
OBJECT_ID      = 2026-025P
CENTER_NAME    = EARTH
REF_FRAME      = TEME
TIME_SYSTEM    = UTC
MEAN_ELEMENT_THEORY = SGP/SGP4

EPOCH          = 2026-03-03T18:00:02.000160
MEAN_MOTION    = 15.75173447
ECCENTRICITY   = .00015037
INCLINATION    = 97.2851
RA_OF_ASC_NODE = 174.1000
ARG_OF_PERICENTER = 89.5399
MEAN_ANOMALY   = 116.8283

EPHEMERIS_TYPE = 0
CLASSIFICATION_TYPE = U
NORAD_CAT_ID   = 67706
ELEMENT_SET_NO = 999
REV_AT_EPOCH   = 474
BSTAR          = .25627825E-3
MEAN_MOTION_DOT = .3824E-3
MEAN_MOTION_DDOT = 0

CCSDS_OMM_VERS = 2.0
CREATION_DATE  = 
ORIGINATOR     = 

OBJECT_NAME    = STARLINK-36645
OBJECT_ID      = 2026-025Q
CENTER_NAME    = EARTH
REF_FRAME      = TEME
TIME_SYSTEM    = UTC
MEAN_ELEMENT_THEORY = SGP/SGP4

EPOCH          = 2026-03-03T19:13:08.249952
MEAN_MOTION    = 15.75247026
ECCENTRICITY   = .00005277
INCLINATION    = 97.2858
RA_OF_ASC_NODE = 174.0969
ARG_OF_PERICENTER = 122.1876
MEAN_ANOMALY   = 237.9441

EPHEMERIS_TYPE = 0
CLASSIFICATION_TYPE = U
NORAD_CAT_ID   = 67707
ELEMENT_SET_NO = 999
REV_AT_EPOCH   = 501
BSTAR          = .15810316E-2
MEAN_MOTION_DOT = .243134E-2
MEAN_MOTION_DDOT = 0

CCSDS_OMM_VERS = 2.0
CREATION_DATE  = 
ORIGINATOR     = 

OBJECT_NAME    = STARLINK-36287
OBJECT_ID      = 2026-025R
CENTER_NAME    = EARTH
REF_FRAME      = TEME
TIME_SYSTEM    = UTC
MEAN_ELEMENT_THEORY = SGP/SGP4

EPOCH          = 2026-03-03T23:00:28.949760
MEAN_MOTION    = 15.80946967
ECCENTRICITY   = .0001426
INCLINATION    = 97.2853
RA_OF_ASC_NODE = 174.3399
ARG_OF_PERICENTER = 68.5859
MEAN_ANOMALY   = 291.5561

EPHEMERIS_TYPE = 0
CLASSIFICATION_TYPE = U
NORAD_CAT_ID   = 67708
ELEMENT_SET_NO = 999
REV_AT_EPOCH   = 505
BSTAR          = .15711159E-2
MEAN_MOTION_DOT = .313751E-2
MEAN_MOTION_DDOT = 0

